ONEWEB-0435             
1 51632U 22012L   24238.55053261  .00000259  00000+0  70472-3 0  9998
2 51632  87.8995 167.7128 0001531  78.3161 281.8138 13.10377150122793
ONEWEB-0436             
1 51633U 22012M   24238.41576416  .00000066  00000+0  13601-3 0  9993
2 51633  87.9172 137.4585 0001625  76.4350 283.6963 13.17650832126660
ONEWEB-0438             
1 51634U 22012N   24238.30482424 -.00000607  00000+0 -17764-2 0  9993
2 51634  87.8994 167.7619 0002097  71.4037 288.7318 13.10373806122793
ONEWEB-0439             
1 51635U 22012P   24238.53721917 -.00000628  00000+0 -18343-2 0  9999
2 51635  87.8996 167.7015 0001918  75.9245 284.2095 13.10374800122807
ONEWEB-0442             
1 51636U 22012Q   24238.48445607  .00000092  00000+0  20489-3 0  9991
2 51636  87.9174 137.4824 0002625  73.0929 287.0491 13.17647206126662
ONEWEB-0443             
1 51637U 22012R   24238.42707739  .00000096  00000+0  21372-3 0  9999
2 51637  87.9178 137.5024 0001560  66.5512 293.5783 13.17647439126701
ONEWEB-0444             
1 51638U 22012S   24238.52725320 -.00000557  00000+0 -16330-2 0  9998
2 51638  87.8989 167.7217 0001793  75.0365 285.0960 13.10371411122817
ONEWEB-0445             
1 51639U 22012T   24238.54884662  .00000202  00000+0  54283-3 0  9991
2 51639  87.8985 167.6862 0002259  78.8309 281.3072 13.10378019122821
